COMMENT,ORIGINATOR,NORAD_CAT_ID,OBJECT_NAME,OBJECT_TYPE,CLASSIFICATION_TYPE,INTLDES,EPOCH,EPOCH_MICROSECONDS,MEAN_MOTION,ECCENTRICITY,INCLINATION,RA_OF_ASC_NODE,ARG_OF_PERICENTER,MEAN_ANOMALY,EPHEMERIS_TYPE,ELEMENT_SET_NO,REV_AT_EPOCH,BSTAR,MEAN_MOTION_DOT,MEAN_MOTION_DDOT,FILE,TLE_LINE0,TLE_LINE1,TLE_LINE2,OBJECT_ID,OBJECT_NUMBER,SEMIMAJOR_AXIS,PERIOD,APOGEE,PERIGEE,DECAYED,date
GENERATED VIA SPACETRACK.ORG API,18 SPCS,48886,SPACEBEE-102,PAYLOAD,U,21059H,2023/4/11 8:04,756064,15.26851612,0.0007355,97.5855,236.675,153.1654,206.9966,0,999,9916,0.0012401,0.00032775,0,3885715,0 SPACEBEE-102,1 48886U 21059H   23101.33645551  .00032775  00000-0  12401-2 0  9994,2 48886  97.5855 236.6750 0007355 153.1654 206.9966 15.26851612 99169,2021-059H,48886,6863.368,94.312,490.281,480.185,0,
GENERATED VIA SPACETRACK.ORG API,18 SPCS,48886,SPACEBEE-102,PAYLOAD,U,21059H,2023/4/11 8:04,756064,15.26851612,0.0007355,97.5855,236.675,153.1654,206.9966,0,999,9916,0.0012401,0.00032775,0,3885783,0 SPACEBEE-102,1 48886U 21059H   23101.33645551  .00032775  00000-0  12401-2 0  9994,2 48886  97.5855 236.6750 0007355 153.1654 206.9966 15.26851612 99169,2021-059H,48886,6863.368,94.312,490.281,480.185,0,
GENERATED VIA SPACETRACK.ORG API,18 SPCS,48886,SPACEBEE-102,PAYLOAD,U,21059H,2023/4/12 7:40,513856,15.26924643,0.00073,97.5856,237.6739,149.6065,210.5597,0,999,9931,0.0012459,0.00033002,0,3886304,0 SPACEBEE-102,1 48886U 21059H   23102.31947354  .00033002  00000-0  12459-2 0  9996,2 48886  97.5856 237.6739 0007300 149.6065 210.5597 15.26924643 99317,2021-059H,48886,6863.149,94.307,490.024,480.004,0,
GENERATED VIA SPACETRACK.ORG API,18 SPCS,48886,SPACEBEE-102,PAYLOAD,U,21059H,2023/4/12 7:40,513856,15.26924643,0.00073,97.5856,237.6739,149.6065,210.5597,0,999,9931,0.0012459,0.00033002,0,3886349,0 SPACEBEE-102,1 48886U 21059H   23102.31947354  .00033002  00000-0  12459-2 0  9996,2 48886  97.5856 237.6739 0007300 149.6065 210.5597 15.26924643 99317,2021-059H,48886,6863.149,94.307,490.024,480.004,0,
GENERATED VIA SPACETRACK.ORG API,18 SPCS,48886,SPACEBEE-102,PAYLOAD,U,21059H,2023/4/13 8:49,58144,15.27004084,0.0007346,97.5853,238.7392,145.9334,214.2377,0,999,9947,0.0013924,0.00037,0,3886564,0 SPACEBEE-102,1 48886U 21059H   23103.36797521  .00037000  00000-0  13924-2 0  9991,2 48886  97.5853 238.7392 0007346 145.9334 214.2377 15.27004084 99472,2021-059H,48886,6862.911,94.302,489.818,479.735,0,
GENERATED VIA SPACETRACK.ORG API,18 SPCS,48886,SPACEBEE-102,PAYLOAD,U,21059H,2023/4/13 8:49,58144,15.27004084,0.0007346,97.5853,238.7392,145.9334,214.2377,0,999,9947,0.0013924,0.00037,0,3886822,0 SPACEBEE-102,1 48886U 21059H   23103.36797521  .00037000  00000-0  13924-2 0  9991,2 48886  97.5853 238.7392 0007346 145.9334 214.2377 15.27004084 99472,2021-059H,48886,6862.911,94.302,489.818,479.735,0,
GENERATED VIA SPACETRACK.ORG API,18 SPCS,48886,SPACEBEE-102,PAYLOAD,U,21059H,2023/4/14 9:59,935104,15.27085021,0.0007279,97.5847,239.8048,142.6198,217.5549,0,999,9963,0.0014701,0.00039175,0,3887333,0 SPACEBEE-102,1 48886U 21059H   23104.41642286  .00039175  00000-0  14701-2 0  9994,2 48886  97.5847 239.8048 0007279 142.6198 217.5549 15.27085021 99637,2021-059H,48886,6862.669,94.297,489.529,479.538,0,
GENERATED VIA SPACETRACK.ORG API,18 SPCS,48886,SPACEBEE-102,PAYLOAD,U,21059H,2023/4/14 14:42,236288,15.27100583,0.000727,97.5846,240.0046,142.008,218.1673,0,999,9966,0.0014906,0.00039744,0,3887317,0 SPACEBEE-102,1 48886U 21059H   23104.61300042  .00039744  00000-0  14906-2 0  9996,2 48886  97.5846 240.0046 0007270 142.0080 218.1673 15.27100583 99662,2021-059H,48886,6862.622,94.296,489.476,479.498,0,
GENERATED VIA SPACETRACK.ORG API,18 SPCS,48886,SPACEBEE-102,PAYLOAD,U,21059H,2023/4/15 8:00,296000,15.27167294,0.0007163,97.5846,240.7372,139.755,220.422,0,999,9977,0.0016627,0.00044458,0,3887905,0 SPACEBEE-102,1 48886U 21059H   23105.33376500  .00044458  00000-0  16627-2 0  9998,2 48886  97.5846 240.7372 0007163 139.7550 220.4220 15.27167294 99775,2021-059H,48886,6862.422,94.292,489.203,479.372,0,
GENERATED VIA SPACETRACK.ORG API,18 SPCS,48886,SPACEBEE-102,PAYLOAD,U,21059H,2023/4/15 8:00,296000,15.27167294,0.0007163,97.5846,240.7372,139.755,220.422,0,999,9977,0.0016627,0.00044458,0,3887974,0 SPACEBEE-102,1 48886U 21059H   23105.33376500  .00044458  00000-0  16627-2 0  9998,2 48886  97.5846 240.7372 0007163 139.7550 220.4220 15.27167294 99775,2021-059H,48886,6862.422,94.292,489.203,479.372,0,
GENERATED VIA SPACETRACK.ORG API,18 SPCS,48886,SPACEBEE-102,PAYLOAD,U,21059H,2023/4/15 20:35,825920,15.27217512,0.000717,97.5847,241.2698,137.7357,222.4436,0,999,9985,0.0017245,0.00046194,0,3888171,0 SPACEBEE-102,1 48886U 21059H   23105.85793780  .00046194  00000-0  17245-2 0  9994,2 48886  97.5847 241.2698 0007170 137.7357 222.4436 15.27217512 99853,2021-059H,48886,6862.272,94.289,489.057,479.216,0,
GENERATED VIA SPACETRACK.ORG API,18 SPCS,48886,SPACEBEE-102,PAYLOAD,U,21059H,2023/4/16 7:35,62720,15.27259122,0.0007164,97.5848,241.7359,135.9857,224.1953,0,999,9992,0.0016381,0.00043918,0,3888626,0 SPACEBEE-102,1 48886U 21059H   23106.31657480  .00043918  00000-0  16381-2 0  9993,2 48886  97.5848 241.7359 0007164 135.9857 224.1953 15.27259122 99925,2021-059H,48886,6862.147,94.287,488.928,479.096,0,
GENERATED VIA SPACETRACK.ORG API,18 SPCS,48886,SPACEBEE-102,PAYLOAD,U,21059H,2023/4/16 20:10,858080,15.27308222,0.0007153,97.5853,242.2688,133.779,226.4042,0,999,10000,0.0016306,0.00043781,0,3888744,0 SPACEBEE-102,1 48886U 21059H   23106.84071595  .00043781  00000-0  16306-2 0  9993,2 48886  97.5853 242.2688 0007153 133.7790 226.4042 15.27308222100004,2021-059H,48886,6862,94.284,488.773,478.957,0,
GENERATED VIA SPACETRACK.ORG API,18 SPCS,48886,SPACEBEE-102,PAYLOAD,U,21059H,2023/4/16 21:44,481952,15.27314661,0.0007139,97.5854,242.3354,133.4186,226.7648,0,999,10001,0.0016585,0.00044544,0,3888799,0 SPACEBEE-102,1 48886U 21059H   23106.90623243  .00044544  00000-0  16585-2 0  9990,2 48886  97.5854 242.3354 0007139 133.4186 226.7648 15.27314661100016,2021-059H,48886,6861.981,94.283,488.744,478.947,0,
GENERATED VIA SPACETRACK.ORG API,18 SPCS,48886,SPACEBEE-102,PAYLOAD,U,21059H,2023/4/17 8:45,236480,15.27356171,0.0007142,97.5856,242.802,131.842,228.3429,0,999,10008,0.0016702,0.00044918,0,3889215,0 SPACEBEE-102,1 48886U 21059H   23107.36484070  .00044918  00000-0  16702-2 0  9990,2 48886  97.5856 242.8020 0007142 131.8420 228.3429 15.27356171100084,2021-059H,48886,6861.856,94.281,488.622,478.821,0,
GENERATED VIA SPACETRACK.ORG API,18 SPCS,48886,SPACEBEE-102,PAYLOAD,U,21059H,2023/4/17 21:20,250624,15.27402957,0.0007112,97.5858,243.3349,130.1666,230.0197,0,999,10016,0.0016574,0.00044634,0,3889391,0 SPACEBEE-102,1 48886U 21059H   23107.88894966  .00044634  00000-0  16574-2 0  9998,2 48886  97.5858 243.3349 0007112 130.1666 230.0197 15.27402957100162,2021-059H,48886,6861.716,94.278,488.461,478.701,0,
GENERATED VIA SPACETRACK.ORG API,18 SPCS,48886,SPACEBEE-102,PAYLOAD,U,21059H,2023/4/18 8:20,803680,15.27439753,0.0007048,97.5858,243.8014,128.9956,231.1911,0,999,10023,0.0015723,0.00042373,0,3889564,0 SPACEBEE-102,1 48886U 21059H   23108.34753245  .00042373  00000-0  15723-2 0  9997,2 48886  97.5858 243.8014 0007048 128.9956 231.1911 15.27439753100239,2021-059H,48886,6861.606,94.275,488.307,478.635,0,
GENERATED VIA SPACETRACK.ORG API,18 SPCS,48886,SPACEBEE-102,PAYLOAD,U,21059H,2023/4/18 8:20,803680,15.27439753,0.0007048,97.5858,243.8014,128.9956,231.1911,0,999,10023,0.0015723,0.00042373,0,3889684,0 SPACEBEE-102,1 48886U 21059H   23108.34753245  .00042373  00000-0  15723-2 0  9997,2 48886  97.5858 243.8014 0007048 128.9956 231.1911 15.27439753100239,2021-059H,48886,6861.606,94.275,488.307,478.635,0,
GENERATED VIA SPACETRACK.ORG API,18 SPCS,48886,SPACEBEE-102,PAYLOAD,U,21059H,2023/4/18 14:37,254080,15.27461218,0.0007012,97.5859,244.0681,128.4284,231.7585,0,999,10027,0.0015856,0.00042761,0,3889987,0 SPACEBEE-102,1 48886U 21059H   23108.60957470  .00042761  00000-0  15856-2 0  9990,2 48886  97.5859 244.0681 0007012 128.4284 231.7585 15.27461218100271,2021-059H,48886,6861.542,94.274,488.218,478.595,0,
GENERATED VIA SPACETRACK.ORG API,18 SPCS,48886,SPACEBEE-102,PAYLOAD,U,21059H,2023/4/19 7:55,732928,15.27526931,0.0006946,97.5861,244.8009,126.0308,234.1575,0,999,10038,0.0017379,0.00046995,0,3890383,0 SPACEBEE-102,1 48886U 21059H   23109.33017052  .00046995  00000-0  17379-2 0  9999,2 48886  97.5861 244.8009 0006946 126.0308 234.1575 15.27526931100384,2021-059H,48886,6861.345,94.27,487.976,478.444,0,
GENERATED VIA SPACETRACK.ORG API,18 SPCS,48886,SPACEBEE-102,PAYLOAD,U,21059H,2023/4/20 4:21,677280,15.27598879,0.000697,97.5868,245.6672,122.9402,237.2508,0,999,10051,0.0014797,0.00040052,0,3890696,0 SPACEBEE-102,1 48886U 21059H   23110.18174395  .00040052  00000-0  14797-2 0  9997,2 48886  97.5868 245.6672 0006970 122.9402 237.2508 15.27598879100518,2021-059H,48886,6861.13,94.266,487.777,478.212,0,
GENERATED VIA SPACETRACK.ORG API,18 SPCS,48886,SPACEBEE-102,PAYLOAD,U,21059H,2023/4/20 9:04,231136,15.27615438,0.0006941,97.5869,245.8671,122.3905,237.8006,0,999,10054,0.0014101,0.00038174,0,3890827,0 SPACEBEE-102,1 48886U 21059H   23110.37825499  .00038174  00000-0  14101-2 0  9997,2 48886  97.5869 245.8671 0006941 122.3905 237.8006 15.27615438100543,2021-059H,48886,6861.08,94.265,487.707,478.183,0,
GENERATED VIA SPACETRACK.ORG API,18 SPCS,48886,SPACEBEE-102,PAYLOAD,U,21059H,2023/4/20 21:39,612704,15.27654931,0.0006935,97.5873,246.4001,120.5235,239.6689,0,999,10062,0.0013131,0.00035573,0,3891529,0 SPACEBEE-102,1 48886U 21059H   23110.90227561  .00035573  00000-0  13131-2 0  9994,2 48886  97.5873 246.4001 0006935 120.5235 239.6689 15.27654931100628,2021-059H,48886,6860.962,94.262,487.585,478.069,0,
